[{"OBJECT_NAME":"KUIPER-00117","OBJECT_ID":"2025-228C","EPOCH":"2026-03-05T05:47:07.014624","MEAN_MOTION":14.79939421,"ECCENTRICITY":8.83e-5,"INCLINATION":51.9006,"RA_OF_ASC_NODE":17.7692,"ARG_OF_PERICENTER":91.4125,"MEAN_ANOMALY":268.6939,"EPHEMERIS_TYPE":0,"CLASSIFICATION_TYPE":"U","NORAD_CAT_ID":65949,"ELEMENT_SET_NO":999,"REV_AT_EPOCH":2260,"BSTAR":0.00035528158,"MEAN_MOTION_DOT":2.489e-5,"MEAN_MOTION_DDOT":0},{"OBJECT_NAME":"KUIPER-00121","OBJECT_ID":"2025-228D","EPOCH":"2026-03-05T03:28:54.852384","MEAN_MOTION":14.79941963,"ECCENTRICITY":0.00021248,"INCLINATION":51.902,"RA_OF_ASC_NODE":13.1842,"ARG_OF_PERICENTER":166.8826,"MEAN_ANOMALY":193.2192,"EPHEMERIS_TYPE":0,"CLASSIFICATION_TYPE":"U","NORAD_CAT_ID":65950,"ELEMENT_SET_NO":999,"REV_AT_EPOCH":2266,"BSTAR":0.00019285803,"MEAN_MOTION_DOT":1.249e-5,"MEAN_MOTION_DDOT":0},{"OBJECT_NAME":"KUIPER-00122","OBJECT_ID":"2025-228E","EPOCH":"2026-03-05T01:34:41.286432","MEAN_MOTION":14.79793574,"ECCENTRICITY":6.709e-5,"INCLINATION":51.9023,"RA_OF_ASC_NODE":23.506,"ARG_OF_PERICENTER":97.943,"MEAN_ANOMALY":262.1608,"EPHEMERIS_TYPE":0,"CLASSIFICATION_TYPE":"U","NORAD_CAT_ID":65951,"ELEMENT_SET_NO":999,"REV_AT_EPOCH":2251,"BSTAR":0.00039032178,"MEAN_MOTION_DOT":2.746e-5,"MEAN_MOTION_DDOT":0},{"OBJECT_NAME":"KUIPER-00123","OBJECT_ID":"2025-228F","EPOCH":"2026-03-05T02:25:04.266048","MEAN_MOTION":14.79964494,"ECCENTRICITY":0.00010632,"INCLINATION":51.9003,"RA_OF_ASC_NODE":23.3867,"ARG_OF_PERICENTER":95.2819,"MEAN_ANOMALY":264.8265,"EPHEMERIS_TYPE":0,"CLASSIFICATION_TYPE":"U","NORAD_CAT_ID":65952,"ELEMENT_SET_NO":999,"REV_AT_EPOCH":2251,"BSTAR":0.00092272476,"MEAN_MOTION_DOT":6.825e-5,"MEAN_MOTION_DDOT":0},{"OBJECT_NAME":"KUIPER-00124","OBJECT_ID":"2025-228G","EPOCH":"2026-03-05T05:50:59.455680","MEAN_MOTION":14.79936625,"ECCENTRICITY":7.044e-5,"INCLINATION":51.9044,"RA_OF_ASC_NODE":15.2398,"ARG_OF_PERICENTER":52.5039,"MEAN_ANOMALY":307.5988,"EPHEMERIS_TYPE":0,"CLASSIFICATION_TYPE":"U","NORAD_CAT_ID":65953,"ELEMENT_SET_NO":999,"REV_AT_EPOCH":2264,"BSTAR":0.00013739565,"MEAN_MOTION_DOT":8.26e-6,"MEAN_MOTION_DDOT":0},{"OBJECT_NAME":"KUIPER-00125","OBJECT_ID":"2025-228H","EPOCH":"2026-03-05T04:37:03.303840","MEAN_MOTION":14.79945708,"ECCENTRICITY":8.975e-5,"INCLINATION":51.9031,"RA_OF_ASC_NODE":0.489,"ARG_OF_PERICENTER":109.1441,"MEAN_ANOMALY":250.9618,"EPHEMERIS_TYPE":0,"CLASSIFICATION_TYPE":"U","NORAD_CAT_ID":65954,"ELEMENT_SET_NO":999,"REV_AT_EPOCH":2284,"BSTAR":0.001022645,"MEAN_MOTION_DOT":7.586e-5,"MEAN_MOTION_DDOT":0},{"OBJECT_NAME":"KUIPER-00126","OBJECT_ID":"2025-228J","EPOCH":"2026-03-05T06:31:50.469888","MEAN_MOTION":14.79943079,"ECCENTRICITY":6.29e-5,"INCLINATION":51.9014,"RA_OF_ASC_NODE":20.1377,"ARG_OF_PERICENTER":76.3504,"MEAN_ANOMALY":283.7529,"EPHEMERIS_TYPE":0,"CLASSIFICATION_TYPE":"U","NORAD_CAT_ID":65955,"ELEMENT_SET_NO":999,"REV_AT_EPOCH":2257,"BSTAR":4.841667e-5,"MEAN_MOTION_DOT":1.48e-6,"MEAN_MOTION_DDOT":0},{"OBJECT_NAME":"KUIPER-00127","OBJECT_ID":"2025-228K","EPOCH":"2026-03-05T05:16:41.621088","MEAN_MOTION":14.76363248,"ECCENTRICITY":0.00013185,"INCLINATION":51.9021,"RA_OF_ASC_NODE":11.683,"ARG_OF_PERICENTER":179.5708,"MEAN_ANOMALY":180.5254,"EPHEMERIS_TYPE":0,"CLASSIFICATION_TYPE":"U","NORAD_CAT_ID":65956,"ELEMENT_SET_NO":999,"REV_AT_EPOCH":2269,"BSTAR":0.00071984525,"MEAN_MOTION_DOT":4.833e-5,"MEAN_MOTION_DDOT":0},{"OBJECT_NAME":"KUIPER-00128","OBJECT_ID":"2025-228L","EPOCH":"2026-03-05T02:40:09.770880","MEAN_MOTION":14.79862455,"ECCENTRICITY":8.035e-5,"INCLINATION":51.9024,"RA_OF_ASC_NODE":13.362,"ARG_OF_PERICENTER":102.5749,"MEAN_ANOMALY":257.5303,"EPHEMERIS_TYPE":0,"CLASSIFICATION_TYPE":"U","NORAD_CAT_ID":65957,"ELEMENT_SET_NO":999,"REV_AT_EPOCH":2265,"BSTAR":0.0008759556,"MEAN_MOTION_DOT":6.452e-5,"MEAN_MOTION_DDOT":0},{"OBJECT_NAME":"KUIPER-00129","OBJECT_ID":"2025-228M","EPOCH":"2026-03-05T05:14:00.967200","MEAN_MOTION":14.79953272,"ECCENTRICITY":7.749e-5,"INCLINATION":51.9031,"RA_OF_ASC_NODE":7.8752,"ARG_OF_PERICENTER":82.7348,"MEAN_ANOMALY":277.3702,"EPHEMERIS_TYPE":0,"CLASSIFICATION_TYPE":"U","NORAD_CAT_ID":65958,"ELEMENT_SET_NO":999,"REV_AT_EPOCH":2274,"BSTAR":0.0010633239,"MEAN_MOTION_DOT":7.898e-5,"MEAN_MOTION_DDOT":0},{"OBJECT_NAME":"KUIPER-00130","OBJECT_ID":"2025-228N","EPOCH":"2026-03-05T05:59:01.141728","MEAN_MOTION":14.80013766,"ECCENTRICITY":0.00011994,"INCLINATION":51.9053,"RA_OF_ASC_NODE":10.2429,"ARG_OF_PERICENTER":106.4704,"MEAN_ANOMALY":253.639,"EPHEMERIS_TYPE":0,"CLASSIFICATION_TYPE":"U","NORAD_CAT_ID":65959,"ELEMENT_SET_NO":999,"REV_AT_EPOCH":1300,"BSTAR":0.00098509489,"MEAN_MOTION_DOT":7.311e-5,"MEAN_MOTION_DDOT":0},{"OBJECT_NAME":"KUIPER-00134","OBJECT_ID":"2025-228P","EPOCH":"2026-03-05T00:56:51.535104","MEAN_MOTION":15.38420903,"ECCENTRICITY":0.00053725,"INCLINATION":51.8784,"RA_OF_ASC_NODE":342.9053,"ARG_OF_PERICENTER":303.7158,"MEAN_ANOMALY":56.3317,"EPHEMERIS_TYPE":0,"CLASSIFICATION_TYPE":"U","NORAD_CAT_ID":65960,"ELEMENT_SET_NO":999,"REV_AT_EPOCH":2307,"BSTAR":0.0012304766,"MEAN_MOTION_DOT":0.00047285,"MEAN_MOTION_DDOT":0},{"OBJECT_NAME":"KUIPER-00135","OBJECT_ID":"2025-228Q","EPOCH":"2026-03-05T03:32:54.977856","MEAN_MOTION":14.79931406,"ECCENTRICITY":9.871e-5,"INCLINATION":51.9049,"RA_OF_ASC_NODE":10.7533,"ARG_OF_PERICENTER":84.6519,"MEAN_ANOMALY":275.4556,"EPHEMERIS_TYPE":0,"CLASSIFICATION_TYPE":"U","NORAD_CAT_ID":65961,"ELEMENT_SET_NO":999,"REV_AT_EPOCH":2269,"BSTAR":0.0010038322,"MEAN_MOTION_DOT":7.439e-5,"MEAN_MOTION_DDOT":0},{"OBJECT_NAME":"KUIPER-00136","OBJECT_ID":"2025-228R","EPOCH":"2026-03-05T06:02:31.124832","MEAN_MOTION":14.79879638,"ECCENTRICITY":0.00013808,"INCLINATION":51.9021,"RA_OF_ASC_NODE":7.7674,"ARG_OF_PERICENTER":99.1538,"MEAN_ANOMALY":260.9581,"EPHEMERIS_TYPE":0,"CLASSIFICATION_TYPE":"U","NORAD_CAT_ID":65962,"ELEMENT_SET_NO":999,"REV_AT_EPOCH":2274,"BSTAR":0.0010523481,"MEAN_MOTION_DOT":7.8e-5,"MEAN_MOTION_DDOT":0},{"OBJECT_NAME":"KUIPER-00137","OBJECT_ID":"2025-228S","EPOCH":"2026-03-04T00:57:13.354560","MEAN_MOTION":14.8310941,"ECCENTRICITY":7.371e-5,"INCLINATION":51.9034,"RA_OF_ASC_NODE":10.5966,"ARG_OF_PERICENTER":94.2766,"MEAN_ANOMALY":265.8282,"EPHEMERIS_TYPE":0,"CLASSIFICATION_TYPE":"U","NORAD_CAT_ID":65963,"ELEMENT_SET_NO":999,"REV_AT_EPOCH":2260,"BSTAR":0.0010436554,"MEAN_MOTION_DOT":8.369e-5,"MEAN_MOTION_DDOT":0},{"OBJECT_NAME":"KUIPER-00138","OBJECT_ID":"2025-228T","EPOCH":"2026-03-05T02:07:13.663776","MEAN_MOTION":14.79924547,"ECCENTRICITY":7.637e-5,"INCLINATION":51.9023,"RA_OF_ASC_NODE":3.4396,"ARG_OF_PERICENTER":314.7167,"MEAN_ANOMALY":45.3733,"EPHEMERIS_TYPE":0,"CLASSIFICATION_TYPE":"U","NORAD_CAT_ID":65964,"ELEMENT_SET_NO":999,"REV_AT_EPOCH":2279,"BSTAR":-0.00055524592,"MEAN_MOTION_DOT":-4.45e-5,"MEAN_MOTION_DDOT":0},{"OBJECT_NAME":"KUIPER-00140","OBJECT_ID":"2025-228U","EPOCH":"2026-03-05T02:03:22.977504","MEAN_MOTION":14.79931045,"ECCENTRICITY":3.829e-5,"INCLINATION":51.9009,"RA_OF_ASC_NODE":6.0343,"ARG_OF_PERICENTER":115.2047,"MEAN_ANOMALY":244.8956,"EPHEMERIS_TYPE":0,"CLASSIFICATION_TYPE":"U","NORAD_CAT_ID":65965,"ELEMENT_SET_NO":999,"REV_AT_EPOCH":2275,"BSTAR":0.00084750754,"MEAN_MOTION_DOT":6.245e-5,"MEAN_MOTION_DDOT":0}]
