KUIPER-00117            
1 65949U 25228C   26064.24105341  .00002489  00000+0  35528-3 0  9998
2 65949  51.9006  17.7692 0000883  91.4125 268.6939 14.79939421 22601
KUIPER-00121            
1 65950U 25228D   26064.14507931  .00001249  00000+0  19286-3 0  9996
2 65950  51.9020  13.1842 0002124 166.8826 193.2192 14.79941963 22665
KUIPER-00122            
1 65951U 25228E   26064.06575563  .00002746  00000+0  39032-3 0  9998
2 65951  51.9023  23.5060 0000670  97.9430 262.1608 14.79793574 22510
KUIPER-00123            
1 65952U 25228F   26064.10074382  .00006825  00000+0  92272-3 0  9994
2 65952  51.9003  23.3867 0001063  95.2819 264.8265 14.79964494 22510
KUIPER-00124            
1 65953U 25228G   26064.24374370  .00000826  00000+0  13740-3 0  9998
2 65953  51.9044  15.2398 0000704  52.5039 307.5988 14.79936625 22642
KUIPER-00125            
1 65954U 25228H   26064.19239935  .00007586  00000+0  10226-2 0  9995
2 65954  51.9031   0.4890 0000897 109.1441 250.9618 14.79945708 22846
KUIPER-00126            
1 65955U 25228J   26064.27211192  .00000148  00000+0  48417-4 0  9992
2 65955  51.9014  20.1377 0000629  76.3504 283.7529 14.79943079 22579
KUIPER-00127            
1 65956U 25228K   26064.21992617  .00004833  00000+0  71985-3 0  9995
2 65956  51.9021  11.6830 0001318 179.5708 180.5254 14.76363248 22698
KUIPER-00128            
1 65957U 25228L   26064.11122420  .00006452  00000+0  87596-3 0  9996
2 65957  51.9024  13.3620 0000803 102.5749 257.5303 14.79862455 22650
KUIPER-00129            
1 65958U 25228M   26064.21806675  .00007898  00000+0  10633-2 0  9991
2 65958  51.9031   7.8752 0000774  82.7348 277.3702 14.79953272 22745
KUIPER-00130            
1 65959U 25228N   26064.24931877  .00007311  00000+0  98509-3 0  9997
2 65959  51.9053  10.2429 0001199 106.4704 253.6390 14.80013766 13007
KUIPER-00134            
1 65960U 25228P   26064.03948536  .00047285  00000+0  12305-2 0  9999
2 65960  51.8784 342.9053 0005372 303.7158  56.3317 15.38420903 23073
KUIPER-00135            
1 65961U 25228Q   26064.14785854  .00007439  00000+0  10038-2 0  9992
2 65961  51.9049  10.7533 0000987  84.6519 275.4556 14.79931406 22690
KUIPER-00136            
1 65962U 25228R   26064.25174913  .00007800  00000+0  10523-2 0  9994
2 65962  51.9021   7.7674 0001380  99.1538 260.9581 14.79879638 22744
KUIPER-00137            
1 65963U 25228S   26063.03973790  .00008369  00000+0  10437-2 0  9995
2 65963  51.9034  10.5966 0000737  94.2766 265.8282 14.83109410 22605
KUIPER-00138            
1 65964U 25228T   26064.08835259 -.00004450  00000+0 -55525-3 0  9996
2 65964  51.9023   3.4396 0000763 314.7167  45.3733 14.79924547 22799
KUIPER-00140            
1 65965U 25228U   26064.08568261  .00006245  00000+0  84751-3 0  9998
2 65965  51.9009   6.0343 0000382 115.2047 244.8956 14.79931045 22753
